NORAD_CAT_ID,OBJECT_NAME,OBJECT_TYPE,EPOCH,MEAN_MOTION,ECCENTRICITY,INCLINATION,RA_OF_ASC_NODE,ARG_OF_PERICENTER,MEAN_ANOMALY,BSTAR,MEAN_MOTION_DOT,MEAN_MOTION_DDOT,TLE_LINE0,TLE_LINE1,TLE_LINE2,SEMIMAJOR_AXIS,PERIOD,APOGEE,PERIGEE,DECAYED
52632.0,STARLINK-3995,PAYLOAD,2024-07-19 08:56:43,15.08838157,0.0001198,53.215,75.0724,85.1386,274.9743,0.00057433,8.864e-05,0.0,0 STARLINK-3995,1 52632U 22052AL  24201.37272775  .00008864  00000-0  57433-3 0  9999,2 52632  53.2150  75.0724 0001198  85.1386 274.9743 15.08838157120679,6917.886,95.438,540.58,538.922,0.0
52632.0,STARLINK-3995,PAYLOAD,2024-07-19 21:39:48,15.08841516,0.0001031,53.2134,72.6887,93.0084,267.1026,0.00031669,4.756e-05,0.0,0 STARLINK-3995,1 52632U 22052AL  24201.90264596  .00004756  00000-0  31669-3 0  9999,2 52632  53.2134  72.6887 0001031  93.0084 267.1026 15.08841516121125,6917.876,95.437,540.454,539.028,0.0
52632.0,STARLINK-3995,PAYLOAD,2024-07-20 00:50:34,15.08866742,0.0001229,53.2166,72.093,89.6517,270.4616,0.00074349,0.00011573,0.0,0 STARLINK-3995,1 52632U 22052AL  24202.03511650  .00011573  00000-0  74349-3 0  9997,2 52632  53.2166  72.0930 0001229  89.6517 270.4616 15.08866742121146,6917.799,95.436,540.514,538.813,0.0
52632.0,STARLINK-3995,PAYLOAD,2024-07-20 08:47:29,15.08856003,0.0001209,53.2163,70.6032,98.98,261.1329,0.00040967,6.241e-05,0.0,0 STARLINK-3995,1 52632U 22052AL  24202.36631632  .00006241  00000-0  40967-3 0  9991,2 52632  53.2163  70.6032 0001209  98.9800 261.1329 15.08856003121198,6917.831,95.437,540.533,538.86,0.0
52632.0,STARLINK-3995,PAYLOAD,2024-07-20 21:30:34,15.08863615,0.0001165,53.2162,68.2279,89.6007,270.5119,0.00039361,5.986e-05,0.0,0 STARLINK-3995,1 52632U 22052AL  24202.89622881  .00005986  00000-0  39361-3 0  9996,2 52632  53.2162  68.2279 0001165  89.6007 270.5119 15.08863615120906,6917.808,95.436,540.479,538.867,0.0
52632.0,STARLINK-3995,PAYLOAD,2024-07-21 19:45:58,15.08838485,0.0001123,53.2147,64.0636,107.8189,252.2926,-7.9218e-05,-1.548e-05,0.0,0 STARLINK-3995,1 52632U 22052AL  24203.82359627 -.00001548  00000-0 -79218-4 0  9993,2 52632  53.2147  64.0636 0001123 107.8189 252.2926 15.08838485121415,6917.885,95.438,540.527,538.973,0.0
52632.0,STARLINK-3995,PAYLOAD,2024-07-21 21:21:21,15.08839103,0.000123,53.215,63.7647,111.9746,248.1377,-0.00016346,-2.888e-05,0.0,0 STARLINK-3995,1 52632U 22052AL  24203.88983549 -.00002888  00000-0 -16346-3 0  9995,2 52632  53.2150  63.7647 0001230 111.9746 248.1377 15.08839103121053,6917.883,95.438,540.599,538.897,0.0
52632.0,STARLINK-3995,PAYLOAD,2024-07-22 14:50:36,15.08834828,0.0001038,53.2148,60.4918,119.3743,240.7353,-0.00030876,-5.198e-05,0.0,0 STARLINK-3995,1 52632U 22052AL  24204.61847916 -.00005198  00000-0 -30876-3 0  9995,2 52632  53.2148  60.4918 0001038 119.3743 240.7353 15.08834828121163,6917.896,95.438,540.479,539.043,0.0
52632.0,STARLINK-3995,PAYLOAD,2024-07-23 00:22:56,15.08815016,0.0001254,53.2144,58.71,94.9563,265.1572,0.00052409,8.057e-05,0.0,0 STARLINK-3995,1 52632U 22052AL  24205.01593722  .00008057  00000-0  52409-3 0  9994,2 52632  53.2144  58.7100 0001254  94.9563 265.1572 15.08815016121599,6917.957,95.439,540.689,538.954,0.0
52632.0,STARLINK-3995,PAYLOAD,2024-07-23 14:41:24,15.08834896,0.0002151,53.2153,56.0333,85.2614,274.8624,0.00029522,4.413e-05,0.0,0 STARLINK-3995,1 52632U 22052AL  24205.61209036  .00004413  00000-0  29522-3 0  9994,2 52632  53.2153  56.0333 0002151  85.2614 274.8624 15.08834896121317,6917.896,95.438,541.249,538.273,0.0
52632.0,STARLINK-3995,PAYLOAD,2024-07-24 00:13:43,15.08830767,0.0001928,53.2148,54.2503,82.6328,277.4883,0.00016558,2.347e-05,0.0,0 STARLINK-3995,1 52632U 22052AL  24206.00953447  .00002347  00000-0  16558-3 0  9999,2 52632  53.2148  54.2503 0001928  82.6328 277.4883 15.08830767121740,6917.909,95.438,541.107,538.44,0.0
52632.0,STARLINK-3995,PAYLOAD,2024-07-24 12:56:48,15.08841067,0.0001981,53.215,51.8711,91.2905,268.8314,9.5959e-05,1.239e-05,0.0,0 STARLINK-3995,1 52632U 22052AL  24206.53944984  .00001239  00000-0  95959-4 0  9995,2 52632  53.2150  51.8711 0001981  91.2905 268.8314 15.08841067121820,6917.877,95.437,541.113,538.372,0.0
52632.0,STARLINK-3995,PAYLOAD,2024-07-25 12:47:35,15.08837707,0.0001791,53.2155,47.4124,96.689,263.4306,0.00011813,1.592e-05,0.0,0 STARLINK-3995,1 52632U 22052AL  24207.53305209  .00001592  00000-0  11813-3 0  9995,2 52632  53.2155  47.4124 0001791  96.6890 263.4306 15.08837707121979,6917.887,95.438,540.991,538.513,0.0
52632.0,STARLINK-3995,PAYLOAD,2024-07-25 22:19:54,15.08839106,0.0001685,53.2162,45.6291,108.8226,251.2949,0.0001045,1.375e-05,0.0,0 STARLINK-3995,1 52632U 22052AL  24207.93049259  .00001375  00000-0  10450-3 0  9994,2 52632  53.2162  45.6291 0001685 108.8226 251.2949 15.08839106121662,6917.883,95.438,540.914,538.582,0.0
52632.0,STARLINK-3995,PAYLOAD,2024-07-26 06:16:49,15.08842014,0.0001264,53.2157,44.1432,94.2109,265.9028,0.00014045,1.948e-05,0.0,0 STARLINK-3995,1 52632U 22052AL  24208.26168972  .00001948  00000-0  14045-3 0  9995,2 52632  53.2157  44.1432 0001264  94.2109 265.9028 15.08842014121716,6917.874,95.437,540.614,538.865,0.0
52632.0,STARLINK-3995,PAYLOAD,2024-07-26 22:10:40,15.08849452,0.0001443,53.214,41.1677,91.5301,268.5856,0.00019693,2.848e-05,0.0,0 STARLINK-3995,1 52632U 22052AL  24208.92408422  .00002848  00000-0  19693-3 0  9999,2 52632  53.2140  41.1677 0001443  91.5301 268.5856 15.08849452121811,6917.851,95.437,540.715,538.718,0.0
52632.0,STARLINK-3995,PAYLOAD,2024-07-27 12:29:10,15.08839042,0.0004048,53.2035,38.4926,86.4791,273.6664,0.00037415,5.671e-05,0.0,0 STARLINK-3995,1 52632U 22052AL  24209.52025501  .00005671  00000-0  37415-3 0  9998,2 52632  53.2035  38.4926 0004048  86.4791 273.6664 15.08839042122279,6917.883,95.438,542.549,536.948,0.0
52632.0,STARLINK-3995,PAYLOAD,2024-07-27 20:26:05,15.08835471,0.0001564,53.2144,37.0046,92.6473,267.4698,1.1095e-05,-1.11e-06,0.0,0 STARLINK-3995,1 52632U 22052AL  24209.85145441 -.00000111  00000-0  11095-4 0  9992,2 52632  53.2144  37.0046 0001564  92.6473 267.4698 15.08835471121958,6917.894,95.438,540.841,538.677,0.0
52632.0,STARLINK-3995,PAYLOAD,2024-07-28 18:41:29,15.08845311,0.0001378,53.2167,32.8438,81.3326,278.7822,0.00017638,2.521e-05,0.0,0 STARLINK-3995,1 52632U 22052AL  24210.77881275  .00002521  00000-0  17638-3 0  9991,2 52632  53.2167  32.8438 0001378  81.3326 278.7822 15.08845311122090,6917.864,95.437,540.682,538.776,0.0
52632.0,STARLINK-3995,PAYLOAD,2024-07-29 21:43:02,15.08854767,0.0001392,53.2165,27.787,87.8251,272.2901,0.00035017,5.292e-05,0.0,0 STARLINK-3995,1 52632U 22052AL  24211.90488773  .00005292  00000-0  35017-3 0  9992,2 52632  53.2165  27.7870 0001392  87.8251 272.2901 15.08854767122266,6917.835,95.437,540.663,538.737,0.0
52632.0,STARLINK-3995,PAYLOAD,2024-07-30 12:01:31,15.08835049,0.0001352,53.2164,25.1044,85.5466,274.5681,-5.3593e-05,-1.141e-05,0.0,0 STARLINK-3995,1 52632U 22052AL  24212.50105570 -.00001141  00000-0 -53593-4 0  9991,2 52632  53.2164  25.1044 0001352  85.5466 274.5681 15.08835049122722,6917.896,95.438,540.696,538.825,0.0
52632.0,STARLINK-3995,PAYLOAD,2024-07-30 18:23:03,15.08834746,0.0001341,53.2171,23.9225,86.5275,273.5871,1.7671e-06,-2.6e-06,0.0,0 STARLINK-3995,1 52632U 22052AL  24212.76601788 -.00000260  00000-0  17671-5 0  9999,2 52632  53.2171  23.9225 0001341  86.5275 273.5871 15.08834746122390,6917.896,95.438,540.689,538.834,0.0
52632.0,STARLINK-3995,PAYLOAD,2024-07-31 03:55:23,15.08832608,4.96e-05,53.2151,22.139,34.0783,326.0241,-5.4327e-05,-1.152e-05,0.0,0 STARLINK-3995,1 52632U 22052AL  24213.16346571 -.00001152  00000-0 -54327-4 0  9990,2 52632  53.2151  22.1390 0000496  34.0783 326.0241 15.08832608122822,6917.903,95.438,540.111,539.425,0.0
52632.0,STARLINK-3995,PAYLOAD,2024-07-31 15:03:06,15.08816632,0.0001505,53.2173,20.0508,66.3377,293.7773,-7.7141e-05,-1.515e-05,0.0,0 STARLINK-3995,1 52632U 22052AL  24213.62716384 -.00001515  00000-0 -77141-4 0  9996,2 52632  53.2173  20.0508 0001505  66.3377 293.7773 15.08816632122529,6917.952,95.439,540.858,538.776,0.0
52632.0,STARLINK-3995,PAYLOAD,2024-07-31 21:24:37,15.08844951,0.0001291,53.2178,18.8646,97.8325,262.2814,5.8705e-05,6.47e-06,0.0,0 STARLINK-3995,1 52632U 22052AL  24213.89210314  .00000647  00000-0  58705-4 0  9995,2 52632  53.2178  18.8646 0001291  97.8325 262.2814 15.08844951122562,6917.865,95.437,540.623,538.837,0.0
52632.0,STARLINK-3995,PAYLOAD,2024-08-01 03:46:10,15.08846439,0.0001351,53.2174,17.6777,87.5846,272.53,0.00019387,2.799e-05,0.0,0 STARLINK-3995,1 52632U 22052AL  24214.15706393  .00002799  00000-0  19387-3 0  9994,2 52632  53.2174  17.6777 0001351  87.5846 272.5300 15.08846439122973,6917.861,95.437,540.66,538.791,0.0
52632.0,STARLINK-3995,PAYLOAD,2024-08-01 21:15:23,15.08874371,6.63e-05,53.2167,14.4036,92.0029,268.1039,0.00063747,9.882e-05,0.0,0 STARLINK-3995,1 52632U 22052AL  24214.88568332  .00009882  00000-0  63747-3 0  9992,2 52632  53.2167  14.4036 0000663  92.0029 268.1039 15.08874371122715,6917.775,95.435,540.099,539.182,0.0
52632.0,STARLINK-3995,PAYLOAD,2024-08-02 03:36:57,15.08838273,0.0001584,53.217,13.2135,75.715,284.4018,0.00024304,3.582e-05,0.0,0 STARLINK-3995,1 52632U 22052AL  24215.15066458  .00003582  00000-0  24304-3 0  9992,2 52632  53.2170  13.2135 0001584  75.7150 284.4018 15.08838273123127,6917.886,95.438,540.846,538.655,0.0
52632.0,STARLINK-3995,PAYLOAD,2024-08-02 14:44:39,15.08834486,0.0001837,53.2176,11.1374,92.2532,267.8671,1.1901e-05,-9.9e-07,0.0,0 STARLINK-3995,1 52632U 22052AL  24215.61434775 -.00000099  00000-0  11901-4 0  9995,2 52632  53.2176  11.1374 0001837  92.2532 267.8671 15.08834486122822,6917.897,95.438,541.033,538.491,0.0
52632.0,STARLINK-3995,PAYLOAD,2024-08-02 19:30:48,15.0885388,0.0001283,53.2154,10.2385,89.7403,270.3736,3.813e-05,3.19e-06,0.0,0 STARLINK-3995,1 52632U 22052AL  24215.81305638  .00000319  00000-0  38130-4 0  9999,2 52632  53.2154  10.2385 0001283  89.7403 270.3736 15.08853880123228,6917.838,95.437,540.591,538.815,0.0
